STARLINK-37267          
1 68745U 26082T   26197.09174979  .00009318  00000+0  29054-3 0  9992
2 68745  97.2849  60.2619 0002627  61.9747 298.1761 15.33448852 14132
STARLINK-37347          
1 68746U 26082U   26197.11893624  .00005733  00000+0  17978-3 0  9990
2 68746  97.2847  60.2260 0002155 102.5784 257.5700 15.33442850 14136
STARLINK-37268          
1 68747U 26082V   26197.09718346  .00009673  00000+0  30151-3 0  9990
2 68747  97.2846  60.2560 0001604  91.1261 269.0165 15.33450182 14130
STARLINK-37325          
1 68748U 26082W   26197.13796706  .00009329  00000+0  29095-3 0  9995
2 68748  97.2839  60.1990 0001551 106.3909 253.7504 15.33443314 14134
STARLINK-37324          
1 68749U 26082X   26197.10533932  .00009581  00000+0  29868-3 0  9991
2 68749  97.2844  60.2492 0001455 107.7293 252.4109 15.33448356 14131
STARLINK-37350          
1 68750U 26082Y   26197.08754834  .00007665  00000+0  23935-3 0  9996
2 68750  97.2850  59.2004 0001829  96.3877 263.7574 15.33463504 14068
STARLINK-37277          
1 68751U 26082Z   26197.17603419  .00005448  00000+0  17096-3 0  9997
2 68751  97.2848  60.3033 0001717  94.0482 266.0957 15.33445210 14148
STARLINK-37342          
1 68752U 26082AA  26197.10805811  .00007993  00000+0  24959-3 0  9994
2 68752  97.2861  60.2417 0001363  81.8698 278.2699 15.33450200 14131
STARLINK-37168          
1 68766U 26086A   26197.09140617  .00007585  00000+0  23703-3 0  9990
2 68766  97.2831 233.5533 0001099  92.3876 267.7492 15.33447277 13513
STARLINK-37174          
1 68767U 26086B   26197.08869189  .00006683  00000+0  20912-3 0  9999
2 68767  97.2834 233.4080 0001074  27.2897 332.8402 15.33451172 13509
STARLINK-37279          
1 68768U 26086C   26197.08325020  .00010092  00000+0  31447-3 0  9995
2 68768  97.2834 233.4167 0000354 331.9696  28.1528 15.33448520 13505
STARLINK-36379          
1 68769U 26086D   26197.08596971  .00004152  00000+0  13086-3 0  9990
2 68769  97.2832 233.4101 0000654  30.3229 329.8052 15.33441847 13505
STARLINK-37417          
1 68770U 26086E   26197.07781056  .00007951  00000+0  24831-3 0  9991
2 68770  97.2827 233.4251 0001228 119.4255 240.7110 15.33449411 13504
STARLINK-36759          
1 68771U 26086F   26197.08052878  .00008017  00000+0  25036-3 0  9998
2 68771  97.2830 233.4206 0000767 155.5621 204.5658 15.33448511 13509
STARLINK-37399          
1 68772U 26086G   26197.07509071  .00007968  00000+0  24886-3 0  9996
2 68772  97.2830 233.4258 0000886 168.3744 191.7519 15.33448165 13505
STARLINK-37281          
1 68773U 26086H   26197.07237134  .00008153  00000+0  25459-3 0  9999
2 68773  97.2831 233.4280 0000867 171.7175 188.4083 15.33445774 13509
STARLINK-37381          
1 68774U 26086J   26197.06965231  .00009742  00000+0  30361-3 0  9998
2 68774  97.2828 233.4358 0001229 139.8765 220.2569 15.33452640 13509
STARLINK-37418          
1 68775U 26086K   26197.06693427  .00010331  00000+0  32183-3 0  9994
2 68775  97.2835 233.4380 0001125 121.7827 238.3526 15.33450265 13501
STARLINK-37393          
1 68776U 26086L   26197.06149418  .00009270  00000+0  28906-3 0  9999
2 68776  97.2836 233.4461 0001464 167.9353 192.1925 15.33450225 13501
STARLINK-37400          
1 68777U 26086M   26197.05605589  .00008453  00000+0  26383-3 0  9994
2 68777  97.2840 233.4537 0001519 173.0486 187.0778 15.33449897 13509
STARLINK-37389          
1 68778U 26086N   26197.06421453  .00009080  00000+0  28319-3 0  9990
2 68778  97.2833 233.4416 0001220 145.1194 215.0129 15.33449830 13502
STARLINK-37391          
1 68779U 26086P   26197.05877910  .00008506  00000+0  26545-3 0  9994
2 68779  97.2833 233.4498 0001494 108.5244 251.6162 15.33449477 13505
STARLINK-37266          
1 68780U 26086Q   26197.05333833  .00019861  00000+0  61579-3 0  9999
2 68780  97.2830 233.4573 0000947 170.1900 189.9362 15.33450581 13507
STARLINK-37236          
1 68781U 26086R   26197.11587360  .00007604  00000+0  23758-3 0  9992
2 68781  97.2830 233.5234 0001296 157.5575 202.5724 15.33451582 13515
STARLINK-37390          
1 68782U 26086S   26197.11315625  .00004313  00000+0  13584-3 0  9996
2 68782  97.2832 233.5269 0000432 106.0579 254.0711 15.33445400 13510
STARLINK-37364          
1 68783U 26086T   26197.10771856  .00005512  00000+0  17291-3 0  9999
2 68783  97.2833 233.5349 0000859 116.6119 243.5212 15.33447893 13518
STARLINK-37401          
1 68784U 26086U   26197.11043744  .00008656  00000+0  27010-3 0  9991
2 68784  97.2836 233.5307 0001151 112.1864 247.9501 15.33451142 13511
STARLINK-37335          
1 68785U 26086V   26197.09684457  .00005815  00000+0  18227-3 0  9995
2 68785  97.2833 233.5508 0000992  86.7700 273.3656 15.33448473 13516
STARLINK-37404          
1 68786U 26086W   26197.16753200  .00002321  00000+0  74233-4 0  9996
2 68786  97.2834 233.6076 0001121 112.8076 247.3285 15.33431856 13528
STARLINK-37292          
1 68787U 26086X   26197.09412324  .00007331  00000+0  22915-3 0  9993
2 68787  97.2835 233.5526 0000521 157.7115 202.4150 15.33451056 13510
