OBJECT_NAME,OBJECT_ID,EPOCH,MEAN_MOTION,ECCENTRICITY,INCLINATION,RA_OF_ASC_NODE,ARG_OF_PERICENTER,MEAN_ANOMALY,EPHEMERIS_TYPE,CLASSIFICATION_TYPE,NORAD_CAT_ID,ELEMENT_SET_NO,REV_AT_EPOCH,BSTAR,MEAN_MOTION_DOT,MEAN_MOTION_DDOT
STARLINK-37267,2026-082T,2026-07-16T02:12:07.181856,15.33448852,.0002627,97.2849,60.2619,61.9747,298.1761,0,U,68745,999,1413,.29054E-3,.9318E-4,0
STARLINK-37347,2026-082U,2026-07-16T02:51:16.091136,15.33442850,.0002155,97.2847,60.2260,102.5784,257.5700,0,U,68746,999,1413,.17978E-3,.5733E-4,0
STARLINK-37268,2026-082V,2026-07-16T02:19:56.650944,15.33450182,.0001604,97.2846,60.2560,91.1261,269.0165,0,U,68747,999,1413,.30151E-3,.9673E-4,0
STARLINK-37325,2026-082W,2026-07-16T03:18:40.353984,15.33443314,.0001551,97.2839,60.1990,106.3909,253.7504,0,U,68748,999,1413,.29095E-3,.9329E-4,0
STARLINK-37324,2026-082X,2026-07-16T02:31:41.317248,15.33448356,.0001455,97.2844,60.2492,107.7293,252.4109,0,U,68749,999,1413,.29868E-3,.9581E-4,0
STARLINK-37350,2026-082Y,2026-07-16T02:06:04.176576,15.33463504,.0001829,97.2850,59.2004,96.3877,263.7574,0,U,68750,999,1406,.23935E-3,.7665E-4,0
STARLINK-37277,2026-082Z,2026-07-16T04:13:29.354016,15.33445210,.0001717,97.2848,60.3033,94.0482,266.0957,0,U,68751,999,1414,.17096E-3,.5448E-4,0
STARLINK-37342,2026-082AA,2026-07-16T02:35:36.220704,15.33450200,.0001363,97.2861,60.2417,81.8698,278.2699,0,U,68752,999,1413,.24959E-3,.7993E-4,0
STARLINK-37168,2026-086A,2026-07-16T02:11:37.493088,15.33447277,.0001099,97.2831,233.5533,92.3876,267.7492,0,U,68766,999,1351,.23703E-3,.7585E-4,0
STARLINK-37174,2026-086B,2026-07-16T02:07:42.979296,15.33451172,.0001074,97.2834,233.4080,27.2897,332.8402,0,U,68767,999,1350,.20912E-3,.6683E-4,0
STARLINK-37279,2026-086C,2026-07-16T01:59:52.817280,15.33448520,.0000354,97.2834,233.4167,331.9696,28.1528,0,U,68768,999,1350,.31447E-3,.10092E-3,0
STARLINK-36379,2026-086D,2026-07-16T02:03:47.782944,15.33441847,.0000654,97.2832,233.4101,30.3229,329.8052,0,U,68769,999,1350,.13086E-3,.4152E-4,0
STARLINK-37417,2026-086E,2026-07-16T01:52:02.832384,15.33449411,.0001228,97.2827,233.4251,119.4255,240.7110,0,U,68770,999,1350,.24831E-3,.7951E-4,0
STARLINK-36759,2026-086F,2026-07-16T01:55:57.686592,15.33448511,.0000767,97.2830,233.4206,155.5621,204.5658,0,U,68771,999,1350,.25036E-3,.8017E-4,0
STARLINK-37399,2026-086G,2026-07-16T01:48:07.837344,15.33448165,.0000886,97.2830,233.4258,168.3744,191.7519,0,U,68772,999,1350,.24886E-3,.7968E-4,0
STARLINK-37281,2026-086H,2026-07-16T01:44:12.883776,15.33445774,.0000867,97.2831,233.4280,171.7175,188.4083,0,U,68773,999,1350,.25459E-3,.8153E-4,0
STARLINK-37381,2026-086J,2026-07-16T01:40:17.959584,15.33452640,.0001229,97.2828,233.4358,139.8765,220.2569,0,U,68774,999,1350,.30361E-3,.9742E-4,0
STARLINK-37418,2026-086K,2026-07-16T01:36:23.120928,15.33450265,.0001125,97.2835,233.4380,121.7827,238.3526,0,U,68775,999,1350,.32183E-3,.10331E-3,0
STARLINK-37393,2026-086L,2026-07-16T01:28:33.097152,15.33450225,.0001464,97.2836,233.4461,167.9353,192.1925,0,U,68776,999,1350,.28906E-3,.927E-4,0
STARLINK-37400,2026-086M,2026-07-16T01:20:43.228896,15.33449897,.0001519,97.2840,233.4537,173.0486,187.0778,0,U,68777,999,1350,.26383E-3,.8453E-4,0
STARLINK-37389,2026-086N,2026-07-16T01:32:28.135392,15.33449830,.000122,97.2833,233.4416,145.1194,215.0129,0,U,68778,999,1350,.28319E-3,.908E-4,0
STARLINK-37391,2026-086P,2026-07-16T01:24:38.514240,15.33449477,.0001494,97.2833,233.4498,108.5244,251.6162,0,U,68779,999,1350,.26545E-3,.8506E-4,0
STARLINK-37266,2026-086Q,2026-07-16T01:16:48.431712,15.33450581,.0000947,97.2830,233.4573,170.1900,189.9362,0,U,68780,999,1350,.61579E-3,.19861E-3,0
STARLINK-37236,2026-086R,2026-07-16T02:46:51.479040,15.33451582,.0001296,97.2830,233.5234,157.5575,202.5724,0,U,68781,999,1351,.23758E-3,.7604E-4,0
STARLINK-37390,2026-086S,2026-07-16T02:42:56.700000,15.33445400,.0000432,97.2832,233.5269,106.0579,254.0711,0,U,68782,999,1351,.13584E-3,.4313E-4,0
STARLINK-37364,2026-086T,2026-07-16T02:35:06.883584,15.33447893,.0000859,97.2833,233.5349,116.6119,243.5212,0,U,68783,999,1351,.17291E-3,.5512E-4,0
STARLINK-37401,2026-086U,2026-07-16T02:39:01.794816,15.33451142,.0001151,97.2836,233.5307,112.1864,247.9501,0,U,68784,999,1351,.2701E-3,.8656E-4,0
STARLINK-37335,2026-086V,2026-07-16T02:19:27.370848,15.33448473,.0000992,97.2833,233.5508,86.7700,273.3656,0,U,68785,999,1351,.18227E-3,.5815E-4,0
STARLINK-37404,2026-086W,2026-07-16T04:01:14.764800,15.33431856,.0001121,97.2834,233.6076,112.8076,247.3285,0,U,68786,999,1352,.74233E-4,.2321E-4,0
STARLINK-37292,2026-086X,2026-07-16T02:15:32.247936,15.33451056,.0000521,97.2835,233.5526,157.7115,202.4150,0,U,68787,999,1351,.22915E-3,.7331E-4,0
